[
    {
        "OBJECT_NAME": "SL-8 R/B",
        "OBJECT_ID": "1975-112B",
        "EPOCH": "2026-05-16T17:45:25.115328",
        "MEAN_MOTION": 14.38232338,
        "ECCENTRICITY": 0.001625,
        "INCLINATION": 74.0609,
        "RA_OF_ASC_NODE": 253.724,
        "ARG_OF_PERICENTER": 324.8515,
        "MEAN_ANOMALY": 35.1566,
        "EPHEMERIS_TYPE": 0,
        "CLASSIFICATION_TYPE": "U",
        "NORAD_CAT_ID": 8459,
        "ELEMENT_SET_NO": 999,
        "REV_AT_EPOCH": 64165,
        "BSTAR": 3.5462e-05,
        "MEAN_MOTION_DOT": 8.2e-07,
        "MEAN_MOTION_DDOT": 0
    },
    {
        "OBJECT_NAME": "SL-3 R/B",
        "OBJECT_ID": "1977-057B",
        "EPOCH": "2026-05-16T18:59:56.799168",
        "MEAN_MOTION": 15.47181891,
        "ECCENTRICITY": 0.000778,
        "INCLINATION": 97.5821,
        "RA_OF_ASC_NODE": 311.8327,
        "ARG_OF_PERICENTER": 47.1748,
        "MEAN_ANOMALY": 313.0154,
        "EPHEMERIS_TYPE": 0,
        "CLASSIFICATION_TYPE": "U",
        "NORAD_CAT_ID": 10114,
        "ELEMENT_SET_NO": 999,
        "REV_AT_EPOCH": 67885,
        "BSTAR": 0.00019001,
        "MEAN_MOTION_DOT": 9.566e-05,
        "MEAN_MOTION_DDOT": 0
    },
    {
        "OBJECT_NAME": "SEASAT 1",
        "OBJECT_ID": "1978-064A",
        "EPOCH": "2026-05-16T08:27:54.461952",
        "MEAN_MOTION": 14.46216063,
        "ECCENTRICITY": 0.00025653,
        "INCLINATION": 108.0125,
        "RA_OF_ASC_NODE": 267.4711,
        "ARG_OF_PERICENTER": 249.7832,
        "MEAN_ANOMALY": 110.3038,
        "EPHEMERIS_TYPE": 0,
        "CLASSIFICATION_TYPE": "U",
        "NORAD_CAT_ID": 10967,
        "ELEMENT_SET_NO": 999,
        "REV_AT_EPOCH": 51629,
        "BSTAR": 7.7294907e-05,
        "MEAN_MOTION_DOT": 1.39e-06,
        "MEAN_MOTION_DDOT": 0
    },
    {
        "OBJECT_NAME": "SL-14 R/B",
        "OBJECT_ID": "1979-011B",
        "EPOCH": "2026-05-16T17:19:06.246912",
        "MEAN_MOTION": 14.91984618,
        "ECCENTRICITY": 0.0015752,
        "INCLINATION": 82.526,
        "RA_OF_ASC_NODE": 32.0128,
        "ARG_OF_PERICENTER": 184.5771,
        "MEAN_ANOMALY": 175.5308,
        "EPHEMERIS_TYPE": 0,
        "CLASSIFICATION_TYPE": "U",
        "NORAD_CAT_ID": 11267,
        "ELEMENT_SET_NO": 999,
        "REV_AT_EPOCH": 53892,
        "BSTAR": 2.6273e-05,
        "MEAN_MOTION_DOT": 2.92e-06,
        "MEAN_MOTION_DDOT": 0
    },
    {
        "OBJECT_NAME": "SL-8 R/B",
        "OBJECT_ID": "1979-089B",
        "EPOCH": "2026-05-16T12:12:33.352704",
        "MEAN_MOTION": 14.42387373,
        "ECCENTRICITY": 0.0015014,
        "INCLINATION": 74.0687,
        "RA_OF_ASC_NODE": 325.5021,
        "ARG_OF_PERICENTER": 122.1038,
        "MEAN_ANOMALY": 238.1578,
        "EPHEMERIS_TYPE": 0,
        "CLASSIFICATION_TYPE": "U",
        "NORAD_CAT_ID": 11574,
        "ELEMENT_SET_NO": 999,
        "REV_AT_EPOCH": 44588,
        "BSTAR": 3.4724e-05,
        "MEAN_MOTION_DOT": 8.9e-07,
        "MEAN_MOTION_DDOT": 0
    },
    {
        "OBJECT_NAME": "SL-14 R/B",
        "OBJECT_ID": "1980-005B",
        "EPOCH": "2026-05-16T17:05:42.465120",
        "MEAN_MOTION": 14.91000405,
        "ECCENTRICITY": 0.0014302,
        "INCLINATION": 82.5151,
        "RA_OF_ASC_NODE": 242.6933,
        "ARG_OF_PERICENTER": 299.2242,
        "MEAN_ANOMALY": 60.7546,
        "EPHEMERIS_TYPE": 0,
        "CLASSIFICATION_TYPE": "U",
        "NORAD_CAT_ID": 11672,
        "ELEMENT_SET_NO": 999,
        "REV_AT_EPOCH": 48662,
        "BSTAR": 2.8306e-05,
        "MEAN_MOTION_DOT": 3.05e-06,
        "MEAN_MOTION_DDOT": 0
    },
    {
        "OBJECT_NAME": "SL-8 R/B",
        "OBJECT_ID": "1981-003B",
        "EPOCH": "2026-05-16T19:39:13.993344",
        "MEAN_MOTION": 15.13348089,
        "ECCENTRICITY": 0.0252177,
        "INCLINATION": 82.9393,
        "RA_OF_ASC_NODE": 226.895,
        "ARG_OF_PERICENTER": 301.3898,
        "MEAN_ANOMALY": 56.2885,
        "EPHEMERIS_TYPE": 0,
        "CLASSIFICATION_TYPE": "U",
        "NORAD_CAT_ID": 12139,
        "ELEMENT_SET_NO": 999,
        "REV_AT_EPOCH": 32497,
        "BSTAR": 0.00028324,
        "MEAN_MOTION_DOT": 0.00011328,
        "MEAN_MOTION_DDOT": 0
    },
    {
        "OBJECT_NAME": "SL-3 R/B",
        "OBJECT_ID": "1981-046B",
        "EPOCH": "2026-05-16T15:00:11.979360",
        "MEAN_MOTION": 15.43537411,
        "ECCENTRICITY": 0.0019439,
        "INCLINATION": 81.2321,
        "RA_OF_ASC_NODE": 208.0672,
        "ARG_OF_PERICENTER": 141.4048,
        "MEAN_ANOMALY": 218.859,
        "EPHEMERIS_TYPE": 0,
        "CLASSIFICATION_TYPE": "U",
        "NORAD_CAT_ID": 12465,
        "ELEMENT_SET_NO": 999,
        "REV_AT_EPOCH": 44890,
        "BSTAR": 0.00020935,
        "MEAN_MOTION_DOT": 9.49e-05,
        "MEAN_MOTION_DDOT": 0
    },
    {
        "OBJECT_NAME": "SL-3 R/B",
        "OBJECT_ID": "1981-103B",
        "EPOCH": "2026-05-16T19:53:18.612960",
        "MEAN_MOTION": 15.2200055,
        "ECCENTRICITY": 0.0014217,
        "INCLINATION": 81.1561,
        "RA_OF_ASC_NODE": 133.4653,
        "ARG_OF_PERICENTER": 60.8573,
        "MEAN_ANOMALY": 299.4079,
        "EPHEMERIS_TYPE": 0,
        "CLASSIFICATION_TYPE": "U",
        "NORAD_CAT_ID": 12904,
        "ELEMENT_SET_NO": 999,
        "REV_AT_EPOCH": 98359,
        "BSTAR": 0.00012045,
        "MEAN_MOTION_DOT": 2.782e-05,
        "MEAN_MOTION_DDOT": 0
    },
    {
        "OBJECT_NAME": "SL-3 R/B",
        "OBJECT_ID": "1982-013B",
        "EPOCH": "2026-05-16T19:28:08.396256",
        "MEAN_MOTION": 15.2255984,
        "ECCENTRICITY": 0.00209,
        "INCLINATION": 81.1741,
        "RA_OF_ASC_NODE": 80.8759,
        "ARG_OF_PERICENTER": 312.7511,
        "MEAN_ANOMALY": 47.1962,
        "EPHEMERIS_TYPE": 0,
        "CLASSIFICATION_TYPE": "U",
        "NORAD_CAT_ID": 13068,
        "ELEMENT_SET_NO": 999,
        "REV_AT_EPOCH": 41471,
        "BSTAR": 0.00012316,
        "MEAN_MOTION_DOT": 2.9e-05,
        "MEAN_MOTION_DDOT": 0
    },
    {
        "OBJECT_NAME": "SL-3 R/B",
        "OBJECT_ID": "1982-039B",
        "EPOCH": "2026-05-16T19:59:27.585888",
        "MEAN_MOTION": 15.10362057,
        "ECCENTRICITY": 0.0030436,
        "INCLINATION": 81.1419,
        "RA_OF_ASC_NODE": 137.3219,
        "ARG_OF_PERICENTER": 94.9758,
        "MEAN_ANOMALY": 265.4943,
        "EPHEMERIS_TYPE": 0,
        "CLASSIFICATION_TYPE": "U",
        "NORAD_CAT_ID": 13154,
        "ELEMENT_SET_NO": 999,
        "REV_AT_EPOCH": 39192,
        "BSTAR": 6.8277e-05,
        "MEAN_MOTION_DOT": 1.157e-05,
        "MEAN_MOTION_DDOT": 0
    },
    {
        "OBJECT_NAME": "SL-3 R/B",
        "OBJECT_ID": "1982-079B",
        "EPOCH": "2026-05-16T19:57:08.800704",
        "MEAN_MOTION": 15.25495759,
        "ECCENTRICITY": 0.0022636,
        "INCLINATION": 81.1441,
        "RA_OF_ASC_NODE": 112.5657,
        "ARG_OF_PERICENTER": 296.8886,
        "MEAN_ANOMALY": 63.0034,
        "EPHEMERIS_TYPE": 0,
        "CLASSIFICATION_TYPE": "U",
        "NORAD_CAT_ID": 13403,
        "ELEMENT_SET_NO": 999,
        "REV_AT_EPOCH": 38808,
        "BSTAR": 0.00014025,
        "MEAN_MOTION_DOT": 3.603e-05,
        "MEAN_MOTION_DDOT": 0
    },
    {
        "OBJECT_NAME": "SL-14 R/B",
        "OBJECT_ID": "1982-092B",
        "EPOCH": "2026-05-16T19:35:35.973312",
        "MEAN_MOTION": 14.86721373,
        "ECCENTRICITY": 0.0021952,
        "INCLINATION": 82.5678,
        "RA_OF_ASC_NODE": 77.6528,
        "ARG_OF_PERICENTER": 76.2426,
        "MEAN_ANOMALY": 306.9551,
        "EPHEMERIS_TYPE": 0,
        "CLASSIFICATION_TYPE": "U",
        "NORAD_CAT_ID": 13553,
        "ELEMENT_SET_NO": 999,
        "REV_AT_EPOCH": 33905,
        "BSTAR": 2.8354e-05,
        "MEAN_MOTION_DOT": 2.78e-06,
        "MEAN_MOTION_DDOT": 0
    }
]