SL-8 R/B                
1 08459U 75112B   26136.73987402  .00000082  00000+0  35462-4 0  9993
2 08459  74.0609 253.7240 0016250 324.8515  35.1566 14.38232338641654
SL-3 R/B                
1 10114U 77057B   26136.79162962  .00009566  00000+0  19001-3 0  9992
2 10114  97.5821 311.8327 0007780  47.1748 313.0154 15.47181891678855
SEASAT 1                
1 10967U 78064A   26136.35271368  .00000139  00000+0  77295-4 0  9997
2 10967 108.0125 267.4711 0002565 249.7832 110.3038 14.46216063516295
SL-14 R/B               
1 11267U 79011B   26136.72160008  .00000292  00000+0  26273-4 0  9993
2 11267  82.5260  32.0128 0015752 184.5771 175.5308 14.91984618538928
SL-8 R/B                
1 11574U 79089B   26136.50871936  .00000089  00000+0  34724-4 0  9998
2 11574  74.0687 325.5021 0015014 122.1038 238.1578 14.42387373445883
SL-14 R/B               
1 11672U 80005B   26136.71229705  .00000305  00000+0  28306-4 0  9991
2 11672  82.5151 242.6933 0014302 299.2242  60.7546 14.91000405486628
SL-8 R/B                
1 12139U 81003B   26136.81891196  .00011328  00000+0  28324-3 0  9995
2 12139  82.9393 226.8950 0252177 301.3898  56.2885 15.13348089324971
SL-3 R/B                
1 12465U 81046B   26136.62513865  .00009490  00000+0  20935-3 0  9994
2 12465  81.2321 208.0672 0019439 141.4048 218.8590 15.43537411448902
SL-3 R/B                
1 12904U 81103B   26136.82868765  .00002782  00000+0  12045-3 0  9990
2 12904  81.1561 133.4653 0014217  60.8573 299.4079 15.22000550983593
SL-3 R/B                
1 13068U 82013B   26136.81120829  .00002900  00000+0  12316-3 0  9997
2 13068  81.1741  80.8759 0020900 312.7511  47.1962 15.22559840414717
SL-3 R/B                
1 13154U 82039B   26136.83295817  .00001157  00000+0  68277-4 0  9994
2 13154  81.1419 137.3219 0030436  94.9758 265.4943 15.10362057391921
SL-3 R/B                
1 13403U 82079B   26136.83135186  .00003603  00000+0  14025-3 0  9996
2 13403  81.1441 112.5657 0022636 296.8886  63.0034 15.25495759388080
SL-14 R/B               
1 13553U 82092B   26136.81638858  .00000278  00000+0  28354-4 0  9995
2 13553  82.5678  77.6528 0021952  76.2426 306.9551 14.86721373339057
